M2 PATHFINDER           
1 45727U 20037E   20203.09052688 -.00000566  00000-0 -51409-4 0  9994
2 45727  97.7018  22.4392 0012636 181.3851 178.7301 14.91204569  3030
